CS1                     
1 49261U 21088B   26068.75173904  .00015722  00000+0  51176-3 0  9998
2 49261  97.3882 132.1684 0014129  78.0335 282.2490 15.31848439245182
STARLINK-35140          
1 65501U 25198K   26068.82615536  .00020541  00000+0  70378-3 0  9999
2 65501  53.1588 270.1745 0000948  84.2458 275.8650 15.30197411 28642
